X,Y,OBJECTID,CLINICNAME,AGENCYNAME,N_ADDRESS,N_ADDR2,N_CITY,N_COUNTY,N_FULLADDR,N_STATE,N_ZIP,N_ZIP4,N_LAT,N_LON,N_BLOCK,RESERVATIO,RESERV_ID,R_METHOD,ClientCapacity
-109.639069604816,34.4221273826695,1,CONCHO WIC,APACHE COUNTY HEALTH DEPT,18 COUNTY ROAD 5101,,CONCHO,APACHE COUNTY,"18 COUNTY ROAD 5101 , CONCHO, AZ  85924",AZ,85924,,34.422122,-109.639059,40019702011167,,,,15
-112.022930110949,34.73925829329,2,COTTONWOOD WIC,YAVAPAI COUNTY WIC,10 S 6TH ST,,COTTONWOOD,YAVAPAI COUNTY,"10 S 6TH ST , COTTONWOOD, AZ  86326-4236",AZ,86326,4236,34.739253,-112.022919,40250020011000,,,,984
-112.735677110118,32.9434170142496,3,GILA BEND WIC,ADELANTE HEALTHCARE,100 N GILA BLVD,,GILA BEND,MARICOPA COUNTY,"100 N GILA BLVD , GILA BEND, AZ  85337-1016",AZ,85337,1016,32.943412,-112.735666,40137233052068,,,,40
-110.969345710782,32.163125991154,4,EL PUEBLO WIC (EL RIO),EL RIO HEALTH CENTER,101 W IRVINGTON RD STE 10,,TUCSON,PIMA COUNTY,"101 W IRVINGTON RD STE 10 , TUCSON, AZ  85714-3050",AZ,85714,3050,32.163121,-110.969335,40190038023003,,,,1033
-109.554693374646,31.3447209335712,5,DOUGLAS WIC,COCHISE COUNTY HEALTH DEPARTMENT,1012 N G AVE STE 101,,DOUGLAS,COCHISE COUNTY,"1012 N G AVE STE 101 , DOUGLAS, AZ  85607-2020",AZ,85607,2020,31.344716,-109.554683,40030009023011,,,,739
-114.142045357215,32.6712639073267,6,WELLTON WIC,YUMA COUNTY HEALTH DEPT,10425 S WILLIAMS ST,,WELLTON,YUMA COUNTY,"10425 S WILLIAMS ST , WELLTON, AZ  85356",AZ,85356,,32.671259,-114.142034,40270112031026,,,,41
-109.687359422692,31.6961009806465,7,ELFRIDA COMMUNITY CENTER WIC (CALL BISBEE),COCHISE COUNTY HEALTH DEPARTMENT,10550 N HIGHWAY 191,,ELFRIDA,COCHISE COUNTY,"10550 N HIGHWAY 191 , ELFRIDA, AZ  85610-9021",AZ,85610,9021,31.696096,-109.687349,40030005012010,,,,7
-112.967259005158,37.0082772232374,8,COLORADO CITY WIC,COCONINO COUNTY DEPT OF PUBLIC HEALTH,1065 Hildale Street,,Hurricane,Washington County,"1065 N. HILDALE STREET , HILDALE, UT  84784",UT,84737,,37.0082717,-112.9672475,49053270100,,,,229
-109.366167794231,34.5052072501762,9,SAINT JOHNS,APACHE COUNTY HEALTH DEPT,110 S 1st St W,,St Johns,APACHE COUNTY,"110 E. SOUTH 1ST. ST. , SAINT JOHNS, AZ  85936",AZ,85936,,34.50520184,-109.36615724,40019703002015,,,,96
-110.640217282249,32.7217787874779,10,MAMMOTH WIC,PINAL COUNTY DEPT OF PUBLIC HEALTH,110 Main Street,,Mammoth,PINAL COUNTY,"110 MAIN STREET , MAMMOTH, AZ  85618",AZ,85618,,32.7217737,-110.6402066,40210024001039,,,,34
-111.326216931355,34.2312432637597,11,PAYSON WIC,GILA COUNTY HEALTH DEPT,110 W MAIN ST STE A,GILA COUNTY HEALTH DEPT,PAYSON,GILA COUNTY,"110 W MAIN ST STE A GILA COUNTY HEALTH DEPT, PAYSON, AZ  85541-5325",AZ,85541,5325,34.231238,-111.326206,40070003013023,,,,350
-111.000216674284,31.4732348893031,12,RIO RICO WIC,MARIPOSA WIC PROGRAM,1103 CIRCULO MERCADO STE E,,RIO RICO,SANTA CRUZ COUNTY,"1103 CIRCULO MERCADO STE E , RIO RICO, AZ  85648-6249",AZ,85648,6249,31.47323,-111.000206,40239661083004,,,,103
-110.157438749935,34.9035794213132,13,HOLBROOK WIC,NAVAJO COUNTY HEALTH DEPT,117 E BUFFALO ST,,HOLBROOK,NAVAJO COUNTY,"117 E BUFFALO ST , HOLBROOK, AZ  86025-2605",AZ,86025,2605,34.903574,-110.157428,40179602004173,,,,194
-111.51661187507,32.9775250801443,14,COOLIDGE WIC,PINAL COUNTY DEPT OF PUBLIC HEALTH,119 W CENTRAL AVE,,COOLIDGE,PINAL COUNTY,"119 W CENTRAL AVE , COOLIDGE, AZ  85128-4405",AZ,85128,4405,32.97752,-111.516601,40210010001055,,,,557
-111.220402774371,32.366314008077,15,MHC WIC AT MARANA HIGH SCHOOL,MARANA HEALTH CENTER,12000 W EMIGH RD,,TUCSON,PIMA COUNTY,"12000 W EMIGH RD , TUCSON, AZ  85743-9696",AZ,85743,9696,32.366309,-111.220392,40190044252052,,,,3
-114.634565450016,32.7056898870799,16,O.C. JOHNSON,YUMA COUNTY HEALTH DEPT,1201 W 12TH ST,,YUMA,YUMA COUNTY,"1201 W 12TH ST , YUMA, AZ  85364-3605",AZ,85364,3605,32.705685,-114.634554,40270006004010,,,,9
-114.605026634885,35.1078051898684,17,BULLHEAD CITY WIC,MOHAVE COUNTY DEPT OF HEALTH AND SOCIAL SVCS,1222 HANCOCK RD,,BULLHEAD CITY,MOHAVE COUNTY,"1222 HANCOCK RD , BULLHEAD CITY, AZ  86442-5906",AZ,86442,5906,35.1078,-114.605015,40159517011003,,,,1106
-112.327419082629,33.6384591298855,18,WOW SURPRISE WIC,ADELANTE HEALTHCARE,12425 W BELL RD STE 124A,,SURPRISE,MARICOPA COUNTY,"12425 W BELL RD STE 124A , SURPRISE, AZ  85378-9003",AZ,85378,9003,33.638454,-112.327408,40130608012002,,,,32
-111.792648956548,33.3516761187675,19,GILBERT WIC,MARICOPA COUNTY DEPT OF PUBLIC HEALTH- WIC ADMINISTRATION,132 W BRUCE AVE,,GILBERT,MARICOPA COUNTY,"132 W BRUCE AVE , GILBERT, AZ  85233-5404",AZ,85233,5404,33.351671,-111.792638,40134224012007,,,,991
-111.212673778621,32.4494380204945,20,MHC WIC AT MARANA,MARANA HEALTH CENTER,13395 N MARANA MAIN ST,,MARANA,PIMA COUNTY,"13395 N MARANA MAIN ST , MARANA, AZ  85653-7008",AZ,85653,7008,32.449433,-111.212663,40190044301057,,,,472
-112.34803797289,33.4621695044531,21,GOODYEAR,ADELANTE HEALTHCARE,13471 West Cornerstone Boulevard,,Goodyear,MARICOPA COUNTY,"13471 W CORNERSTONE BLVD , GOODYEAR, AZ  85395-2713",AZ,85395,2713,33.4621644,-112.3480269,40130610122000,,,,1079
-114.770201460478,32.4968878537084,22,SAN LUIS WIC,YUMA COUNTY HEALTH DEPT,1358 E LIBERTY ST,,SAN LUIS,YUMA COUNTY,"1358 E LIBERTY ST , SAN LUIS, AZ  85336-0613",AZ,85336,613,32.496883,-114.77019,40270114031009,,,,1371
-112.358437074132,33.4469131024472,23,GOODYEAR WIC AT MOUNTAIN PARK HEALTH CENTER,MOUNTAIN PARK HEALTH CENTER,140 N LITCHFIELD RD STE 106,,GOODYEAR,MARICOPA COUNTY,"140 N LITCHFIELD RD STE 106 , GOODYEAR, AZ  85338-1226",AZ,85338,1226,33.446908,-112.358426,40130613001002,,,,3597
-110.974436717115,32.2361440013832,24,ST. ELIZABETH'S WIC (EL RIO),EL RIO HEALTH CENTER,140 W SPEEDWAY BLVD STE 100,,TUCSON,PIMA COUNTY,"140 W SPEEDWAY BLVD STE 100 , TUCSON, AZ  85705-7687",AZ,85705,7687,32.236139,-110.974426,40190003001000,,,,591
-112.082677018989,33.434615114959,25,SEVENTH AVENUE WIC,MARICOPA COUNTY DEPT OF PUBLIC HEALTH- WIC ADMINISTRATION,1402 S 7TH AVE,,PHOENIX,MARICOPA COUNTY,"1402 S 7TH AVE , PHOENIX, AZ  85007-3902",AZ,85007,3902,33.43461,-112.082666,40131148001000,,,,1637
-109.932512454448,31.3939299241694,26,BISBEE WIC,COCHISE COUNTY HEALTH DEPARTMENT,1415 MELODY LN BLDG A,,BISBEE,COCHISE COUNTY,"1415 MELODY LN BLDG A , BISBEE, AZ  85603-3039",AZ,85603,3039,31.393925,-109.932502,40030012002012,,,,204
-110.078867701475,34.5075273709394,27,SNOWFLAKE WIC,NAVAJO COUNTY HEALTH DEPT,145 S MAIN ST,,SNOWFLAKE,NAVAJO COUNTY,"145 S MAIN ST , SNOWFLAKE, AZ  85937-5276",AZ,85937,5276,34.507522,-110.078857,40179634001107,,,,345
-110.99646871443,32.1330209854638,28,SOUTHWEST WIC (EL RIO),EL RIO HEALTH CENTER,1500 W COMMERCE CT,,TUCSON,PIMA COUNTY,"1500 W COMMERCE CT , TUCSON, AZ  85746-6031",AZ,85746,6031,32.133016,-110.996458,40190025071011,,,,931
-112.389113094578,33.638461126496,29,SURPRISE WIC,ADELANTE HEALTHCARE,15351 W BELL RD,,SURPRISE,MARICOPA COUNTY,"15351 W BELL RD , SURPRISE, AZ  85374-4580",AZ,85374,4580,33.638456,-112.389102,40130610281004,,,,3249
-112.237234063474,33.6248821322314,30,PEORIA WIC,ADELANTE HEALTHCARE,15525 N 83RD AVE,,PEORIA,MARICOPA COUNTY,"15525 N 83RD AVE , PEORIA, AZ  85382-5820",AZ,85382,5820,33.624877,-112.237223,40130715094002,,,,1344
-112.142973033646,33.4669901160255,31,GOLDEN GATE WIC,MARICOPA COUNTY DEPT OF PUBLIC HEALTH- WIC ADMINISTRATION,1625 N 39TH AVE,,PHOENIX,MARICOPA COUNTY,"1625 N 39TH AVE , PHOENIX, AZ  85009-2149",AZ,85009,2149,33.466985,-112.142962,40131122012008,,,,903
-112.04626201427,33.4585651196294,32,DOWNTOWN WIC,MARICOPA COUNTY DEPT OF PUBLIC HEALTH- WIC ADMINISTRATION,1645 E ROOSEVELT ST,,PHOENIX,MARICOPA COUNTY,"1645 E ROOSEVELT ST , PHOENIX, AZ  85006-3638",AZ,85006,3638,33.45856,-112.046251,40131133011005,,,,3071
-109.099003368769,32.7423731659445,33,DUNCAN WIC,GREENLEE COUNTY HEALTH DEPT,1684 FAIRGROUNDS RD,,DUNCAN,GREENLEE COUNTY,"1684 FAIRGROUNDS RD , DUNCAN, AZ  85534-8001",AZ,85534,8001,32.742368,-109.098993,40119603002029,,,,44
-111.868016975787,33.4146601232358,34,MESA MAIN WIC,ADELANTE HEALTHCARE,1705 W MAIN ST,,MESA,MARICOPA COUNTY,"1705 W MAIN ST , MESA, AZ  85201-6920",AZ,85201,6920,33.414655,-111.868006,40134213042000,,,,2054
-111.740157913077,32.8989080587154,35,CASA GRANDE WIC,PINAL COUNTY DEPT OF PUBLIC HEALTH,1729 N TREKELL RD STE 120,,CASA GRANDE,PINAL COUNTY,"1729 N TREKELL RD STE 120 , CASA GRANDE, AZ  85122-2215",AZ,85122,2215,32.898903,-111.740147,40210013062000,,,,2182
-110.970645711533,32.1631219914136,36,WALTER ROGERS 'SOUTH ' WIC OFFICE,PIMA COUNTY HEALTH DEPT,175 W IRVINGTON RD,,TUCSON,PIMA COUNTY,"175 W IRVINGTON RD , TUCSON, AZ  85714-3050",AZ,85714,3050,32.163117,-110.970635,40190038023003,,,,2391
-111.907282982771,33.4076961201141,37,TEMPE WIC AT MOUNTAIN PARK HEALTH CENTER,MOUNTAIN PARK HEALTH CENTER,1840 E BROADWAY RD,,TEMPE,MARICOPA COUNTY,"1840 E BROADWAY RD , TEMPE, AZ  85282-1614",AZ,85282,1614,33.407691,-111.907272,40133192022011,,,,1843
-112.091675036994,33.6532211436288,38,CONSTITUTION ELEMENTARY WIC,MARICOPA COUNTY DEPT OF PUBLIC HEALTH- WIC ADMINISTRATION,18440 N 15TH AVE,,PHOENIX,MARICOPA COUNTY,"18440 N 15TH AVE , PHOENIX, AZ  85023-1402",AZ,85023,1402,33.653216,-112.091664,40136187002002,,,,2179
-110.93394565477,31.3643648759833,39,NOGALES WIC,MARIPOSA WIC PROGRAM,1852 N MASTICK WAY,,NOGALES,SANTA CRUZ COUNTY,"1852 N MASTICK WAY , NOGALES, AZ  85621-1063",AZ,85621,1063,31.36436,-110.933935,40239664012003,,,,2072
-110.793446706386,32.6190710653959,40,ORACLE WIC,PINAL COUNTY DEPT OF PUBLIC HEALTH,1870 W AMERICAN AVE,,ORACLE,PINAL COUNTY,"1870 W AMERICAN AVE , ORACLE, AZ  85623-6015",AZ,85623,6015,32.619066,-110.793436,40210022004029,,,,38
-114.345678535604,34.5078411312593,41,LAKE HAVASU WIC,MOHAVE COUNTY DEPT OF HEALTH AND SOCIAL SVCS,2001 COLLEGE DR STE 104,,LAKE HAVASU CITY,MOHAVE COUNTY,"2001 COLLEGE DR STE 104 , LAKE HAVASU CITY, AZ  86403-1910",AZ,86403,1910,34.507836,-114.345667,40159526001000,,,,709
-111.011342729685,32.3192110112628,42,MHC WIC AT NORTHWEST,MARANA HEALTH CENTER,2055 W HOSPITAL DR STE 135,,TUCSON,PIMA COUNTY,"2055 W HOSPITAL DR STE 135 , TUCSON, AZ  85704-7823",AZ,85704,7823,32.319206,-111.011332,40190046162002,,,,803
-110.55185178938,34.3983123290775,43,HEBER WIC,NAVAJO COUNTY HEALTH DEPT,2188 COUNTRY CLUB DR,,OVERGAARD,NAVAJO COUNTY,"2188 COUNTRY CLUB DR , OVERGAARD, AZ  85933-5052",AZ,85933,5052,34.398307,-110.551841,40179637002057,,,,54
-114.64885345115,32.6768798831863,44,YUMA COUNTY WIC,YUMA COUNTY HEALTH DEPT,2200 W 28TH ST,,YUMA,YUMA COUNTY,"2200 W 28TH ST , YUMA, AZ  85364-6935",AZ,85364,6935,32.676875,-114.648842,40270009071028,,,,5437
-110.628943672998,32.6134220720819,45,SAN MANUEL WIC,PINAL COUNTY DEPT OF PUBLIC HEALTH,23 S MCNAB PKWY,,SAN MANUEL,PINAL COUNTY,"23 S MCNAB PKWY , SAN MANUEL, AZ  85631-1156",AZ,85631,1156,32.613417,-110.628933,40210007003000,,,,48
-110.882242699101,32.2498330074316,46,MHC WIC AT PRIMARY CARE,MARANA HEALTH CENTER,2355 N WYATT DR STE 101,,TUCSON,PIMA COUNTY,"2355 N WYATT DR STE 101 , TUCSON, AZ  85712-2120",AZ,85712,2120,32.249828,-110.882232,40190029043001,,,,691
-111.778329955327,33.3788621230025,47,CANYON GILBERT WIC,CANYON PEDIATRICS & FAMILY,2451 E BASELINE RD STE 200,,GILBERT,MARICOPA COUNTY,"2451 E BASELINE RD STE 200 , GILBERT, AZ  85234-2405",AZ,85234,2405,33.378857,-111.778319,40134225081004,,,,181
-109.290832429467,33.0462432011671,48,CLIFTON WIC,GREENLEE COUNTY HEALTH DEPT,253 5TH ST,,CLIFTON,GREENLEE COUNTY,"253 5TH ST , CLIFTON, AZ  85533",AZ,85533,,33.046238,-109.290822,40119601002012,,,,134
-111.610852069656,35.2142053798242,49,FLAGSTAFF WIC,COCONINO COUNTY DEPT OF PUBLIC HEALTH,2625 N KING ST,,FLAGSTAFF,COCONINO COUNTY,"2625 N KING ST , FLAGSTAFF, AZ  86004-1884",AZ,86004,1884,35.2142,-111.610841,40050004003015,,,,806
-111.976660995675,33.3926391143301,50,48TH STREET WIC,MARICOPA COUNTY DEPT OF PUBLIC HEALTH- WIC ADMINISTRATION,2737 W SOUTHERN AVE STE 10,,TEMPE,MARICOPA COUNTY,"2737 W SOUTHERN AVE STE 10 , TEMPE, AZ  85282-4244",AZ,85282,4244,33.392634,-111.97665,40133197082021,,,,2475
-111.060398701986,31.7293909241996,51,AMADO WIC,MARIPOSA WIC PROGRAM,28720 S NOGALES HWY,,AMADO,PIMA COUNTY,"28720 S NOGALES HWY , AMADO, AZ  85645-9997",AZ,85645,9997,31.729386,-111.060388,40190043161035,,,,62
-111.841922965701,33.3497771154886,52,CHANDLER WIC,MARICOPA COUNTY DEPT OF PUBLIC HEALTH- WIC ADMINISTRATION,3002 N ARIZONA AVE STE 13,,CHANDLER,MARICOPA COUNTY,"3002 N ARIZONA AVE STE 13 , CHANDLER, AZ  85225-7159",AZ,85225,7159,33.349772,-111.841912,40134222201013,,,,3161
-112.124176030653,33.4802791187016,53,ST MARY'S WIC,MARICOPA COUNTY DEPT OF PUBLIC HEALTH- WIC ADMINISTRATION,3003 W THOMAS RD,,PHOENIX,MARICOPA COUNTY,"3003 W THOMAS RD , PHOENIX, AZ  85017-6257",AZ,85017,6257,33.480274,-112.124165,40131121001002,,,,3254
-111.550226865741,32.7540780474631,54,ELOY WIC,PINAL COUNTY DEPT OF PUBLIC HEALTH,302 E 5TH ST,,ELOY,PINAL COUNTY,"302 E 5TH ST , ELOY, AZ  85131-2111",AZ,85131,2111,32.754073,-111.550216,40210020041055,,,,373
-112.070046012761,33.3776021072376,55,MPHC REMOTE SCHEDULING,MOUNTAIN PARK HEALTH CENTER,303 E BASELINE RD STE 107,,PHOENIX,MARICOPA COUNTY,"303 E BASELINE RD STE 107 , PHOENIX, AZ  85042-6561",AZ,85042,6561,33.377597,-112.070035,40131167361002,,,,4
-112.070046012761,33.3776021072376,56,BASELINE WIC AT MOUNTAIN PARK HEALTH CENTER,MOUNTAIN PARK HEALTH CENTER,303 E BASELINE RD STE 107,,PHOENIX,MARICOPA COUNTY,"303 E BASELINE RD STE 107 , PHOENIX, AZ  85042-6561",AZ,85042,6561,33.377597,-112.070035,40131167361002,,,,4902
-112.587681112622,33.370618079714,57,BUCKEYE WIC,ADELANTE HEALTHCARE,310 E MONROE AVE,,BUCKEYE,MARICOPA COUNTY,"310 E MONROE AVE , BUCKEYE, AZ  85326-2706",AZ,85326,2706,33.370613,-112.58767,40130507021081,,,,1892
-112.326876157243,34.5892762563743,58,PRESCOTT VALLEY WIC,YAVAPAI COUNTY WIC,3212 N WINDSONG DR 2ND FL,,PRESCOTT VALLEY,YAVAPAI COUNTY,"3212 N WINDSONG DR 2ND FL , PRESCOTT VALLEY, AZ  86314-2255",AZ,86314,2255,34.589271,-112.326865,40250006151013,,,,1223
-109.288801509092,34.1287143599206,59,SPRINGERVILLE WIC,APACHE COUNTY HEALTH DEPT,323 S MOUNTAIN AVE,,SPRINGERVILLE,APACHE COUNTY,"323 S MOUNTAIN AVE , SPRINGERVILLE, AZ  85938-5102",AZ,85938,5102,34.128709,-109.288791,40019705011004,,,,159
-110.976781718848,32.2645890057964,60,MHC WIC AT HEALTHY BEGINNINGS,MARANA HEALTH CENTER,333 W FORT LOWELL RD STE 100,,TUCSON,PIMA COUNTY,"333 W FORT LOWELL RD STE 100 , TUCSON, AZ  85705-5921",AZ,85705,5921,32.264584,-110.976771,40190026031006,,,,854
-110.306962565427,31.966532993178,61,BENSON WIC,COCHISE COUNTY HEALTH DEPARTMENT,335 S OCOTILLO AVE,,BENSON,COCHISE COUNTY,"335 S OCOTILLO AVE , BENSON, AZ  85602-6406",AZ,85602,6406,31.966528,-110.306952,40030003013006,,,,178
-114.712958257639,32.5969071697146,62,SOMERTON WIC,YUMA COUNTY HEALTH DEPT,350 West Main Street,,Somerton,YUMA COUNTY,"350 B MAIN ST , SOMERTON, AZ  85350",AZ,85350,,32.5969023,-114.7129468,40270115032065,,,,523
-110.905989759471,33.0591551230678,63,KEARNY WIC,PINAL COUNTY DEPT OF PUBLIC HEALTH,355 W ALDEN RD,PINAL COUNTY BLDG,KEARNY,PINAL COUNTY,"355 W ALDEN RD PINAL COUNTY BLDG, KEARNY, AZ  85137-1208",AZ,85137,1208,33.05915,-110.905979,40210023003001,,,,36
-111.565229901048,33.2080661104305,64,SAN TAN VALLEY WIC,PINAL COUNTY DEPT OF PUBLIC HEALTH,36235 N GANTZEL RD,,SAN TAN VALLEY,PINAL COUNTY,"36235 N GANTZEL RD , SAN TAN VALLEY, AZ  85140-7304",AZ,85140,7304,33.208061,-111.565219,40210002061037,,,,1816
-110.956518709175,32.1799629945301,65,MHC WIC AT CLINICA DEL ALMA,MARANA HEALTH CENTER,3690 S PARK AVE STE 805,,TUCSON,PIMA COUNTY,"3690 S PARK AVE STE 805 , TUCSON, AZ  85713-5042",AZ,85713,5042,32.179958,-110.956508,40190022012010,,,,1132
-112.064892019926,33.4912721233776,66,UPTOWN WIC AT VALLE DEL SOL,VALLE DEL SOL WIC PROGRAM,3807 N 7TH ST,,PHOENIX,MARICOPA COUNTY,"3807 N 7TH ST , PHOENIX, AZ  85014-5005",AZ,85014,5005,33.491267,-112.064881,40131106003012,,,,143
-111.997792004007,33.4514151211938,67,GATEWAY WIC AT MOUNTAIN PARK HEALTH CENTER,MOUNTAIN PARK HEALTH CENTER,3830 E VAN BUREN ST,,PHOENIX,MARICOPA COUNTY,"3830 E VAN BUREN ST , PHOENIX, AZ  85008-6920",AZ,85008,6920,33.45141,-111.997781,40131136022017,,,,2135
-110.926531703008,32.1762409948785,68,ABRAMS CNTR WIC OFFICE,PIMA COUNTY HEALTH DEPT,3950 S COUNTRY CLUB RD,,TUCSON,PIMA COUNTY,"3950 S COUNTRY CLUB RD , TUCSON, AZ  85714-2099",AZ,85714,2099,32.176236,-110.926521,40190041181034,,,,2491
-112.863925095774,32.3753879309102,69,AJO CLINIC,DESERT SENITA COMMUNITY HEALTH CENTER,410 N MALACATE ST,,AJO,PIMA COUNTY,"410 N MALACATE ST , AJO, AZ  85321-2254",AZ,85321,2254,32.375383,-112.863914,40190052003015,,,,78
-110.254496528804,31.5454039329439,70,SIERRA VISTA WIC,COCHISE COUNTY HEALTH DEPARTMENT,4115 E FOOTHILLS DR,,SIERRA VISTA,COCHISE COUNTY,"4115 E FOOTHILLS DR , SIERRA VISTA, AZ  85635-6311",AZ,85635,6311,31.545399,-110.254486,40030017014005,,,,1177
-112.027978982136,33.0727940679794,71,MARICOPA WIC,PINAL COUNTY DEPT OF PUBLIC HEALTH,41600 W SMITH ENKE RD BLDG 15,,MARICOPA,PINAL COUNTY,"41600 W SMITH ENKE RD BLDG 15 , MARICOPA, AZ  85138-2702",AZ,85138,2702,33.072789,-112.027968,40210017054012,,,,1017
-112.169128040509,33.4976141188089,72,ATKINSON WIC AT MOUNTAIN PARK HEALTH CENTER,MOUNTAIN PARK HEALTH CENTER,4222 N 51ST AVE,,PHOENIX,MARICOPA COUNTY,"4222 N 51ST AVE , PHOENIX, AZ  85031-1908",AZ,85031,1908,33.497609,-112.169117,40131094012000,,,,193
-109.835082487585,32.248819057385,73,WILLCOX WIC,COCHISE COUNTY HEALTH DEPARTMENT,450 S HASKELL AVE,,WILLCOX,COCHISE COUNTY,"450 S HASKELL AVE , WILLCOX, AZ  85643-2790",AZ,85643,2790,32.248814,-109.835072,40030002022030,,,,200
-111.00336272659,32.2885350076474,74,FLOWING WELLS WIC OFFICE,PIMA COUNTY HEALTH DEPT,4500 N OLD ROMERO RD,,TUCSON,PIMA COUNTY,"4500 N OLD ROMERO RD , TUCSON, AZ  85705-2289",AZ,85705,2289,32.28853,-111.003352,40190045122019,,,,1767
-112.034085007627,33.4045381131605,75,KING WIC,MARICOPA COUNTY DEPT OF PUBLIC HEALTH- WIC ADMINISTRATION,4615 S 22ND ST,,PHOENIX,MARICOPA COUNTY,"4615 S 22ND ST , PHOENIX, AZ  85040-2528",AZ,85040,2528,33.404533,-112.034074,40131160001000,,,,170
-112.080573022042,33.4804591214618,76,PHOENIX CENTRAL,ADELANTE HEALTHCARE,500 W THOMAS RD STE 870,,PHOENIX,MARICOPA COUNTY,"500 W THOMAS RD STE 870 , PHOENIX, AZ  85013-4218",AZ,85013,4218,33.480454,-112.080562,40131105013012,,,,10
-112.169543043582,33.5365271236415,77,GLENDALE WIC,MARICOPA COUNTY DEPT OF PUBLIC HEALTH- WIC ADMINISTRATION,5141 W LAMAR RD,,GLENDALE,MARICOPA COUNTY,"5141 W LAMAR RD , GLENDALE, AZ  85301-3423",AZ,85301,3423,33.536522,-112.169532,40130929001021,,,,4691
-110.811952766523,33.4132441773781,78,GLOBE WIC,GILA COUNTY HEALTH DEPT,5515 S APACHE AVE STE 700,,GLOBE,GILA COUNTY,"5515 S APACHE AVE STE 700 , GLOBE, AZ  85501-4466",AZ,85501,4466,33.413239,-110.811942,40070010003020,,,,465
-112.095423028501,33.5170621251382,79,CHRISTOWN WIC AT MOUNTAIN PARK HEALTH CENTER,MOUNTAIN PARK HEALTH CENTER,5517 N 17TH AVE,,PHOENIX,MARICOPA COUNTY,"5517 N 17TH AVE , PHOENIX, AZ  85015-2516",AZ,85015,2516,33.517057,-112.095412,40131074041002,,,,557
-111.545935913191,33.4207081407347,80,APACHE JUNCTION WIC,PINAL COUNTY DEPT OF PUBLIC HEALTH,575 N IDAHO RD STE 301,,APACHE JUNCTION,PINAL COUNTY,"575 N IDAHO RD STE 301 , APACHE JUNCTION, AZ  85119-4000",AZ,85119,4000,33.420703,-111.545925,40210003092001,,,,894
-112.073532023992,33.521981126946,81,UPTOWN HOPE CENTER WIC,MARICOPA COUNTY DEPT OF PUBLIC HEALTH- WIC ADMINISTRATION,5757 N CENTRAL AVE,,PHOENIX,MARICOPA COUNTY,"5757 N CENTRAL AVE , PHOENIX, AZ  85012-1315",AZ,85012,1315,33.521976,-112.073521,40131075002000,,,,2804
-111.094719913588,33.2939933467659,82,SUPERIOR WIC,PINAL COUNTY DEPT OF PUBLIC HEALTH,60 Main Street,,Superior,PINAL COUNTY,"60 MAIN ST , SUPERIOR, AZ  85173",AZ,85173,,33.2939882,-111.0947091,40210004002112,,,,26
-110.032351672399,34.2553743383589,83,SHOW LOW WIC,NAVAJO COUNTY HEALTH DEPT,600 N 9TH PL,,SHOW LOW,NAVAJO COUNTY,"600 N 9TH PL , SHOW LOW, AZ  85901-3560",AZ,85901,3560,34.255369,-110.032341,40179652021005,,,,713
-110.692163868526,35.0220004072871,84,WINSLOW  WIC,NAVAJO COUNTY HEALTH DEPT,619 E THIRD ST,,WINSLOW,NAVAJO COUNTY,"619 E THIRD ST , WINSLOW, AZ  86047-4003",AZ,86047,4003,35.021995,-110.692153,40179604004019,,,,195
-111.817557965207,33.4076911250245,85,BROADWAY WIC,MARICOPA COUNTY DEPT OF PUBLIC HEALTH- WIC ADMINISTRATION,635 E BROADWAY RD,,MESA,MARICOPA COUNTY,"635 E BROADWAY RD , MESA, AZ  85204-2023",AZ,85204,2023,33.407686,-111.817547,40134219022002,,,,4799
-111.940153995206,33.4873741292146,86,PAIUTE WIC,MARICOPA COUNTY DEPT OF PUBLIC HEALTH- WIC ADMINISTRATION,6535 E OSBORN RD,,SCOTTSDALE,MARICOPA COUNTY,"6535 E OSBORN RD , SCOTTSDALE, AZ  85251-6026",AZ,85251,6026,33.487369,-111.940143,40132175013000,,,,676
-112.200225045971,33.4802261148256,87,MARYVALE WIC AT MOUNTAIN PARK HEALTH CENTER,MOUNTAIN PARK HEALTH CENTER,6601 W THOMAS RD,,PHOENIX,MARICOPA COUNTY,"6601 W THOMAS RD , PHOENIX, AZ  85033-5700",AZ,85033,5700,33.480221,-112.200214,40131125041013,,,,8412
-111.688230940435,33.4103331319869,88,WIC @BAYWOOD,MARICOPA COUNTY DEPT OF PUBLIC HEALTH- WIC ADMINISTRATION,6641 E BAYWOOD AVE STE C1,,MESA,MARICOPA COUNTY,"6641 E BAYWOOD AVE STE C1 , MESA, AZ  85206-1723",AZ,85206,1723,33.410328,-111.68822,40134226253023,,,,2738
-112.20658204778,33.4949191160768,89,MARYVALE WIC,MARICOPA COUNTY DEPT OF PUBLIC HEALTH- WIC ADMINISTRATION,6850 W INDIAN SCHOOL RD,,PHOENIX,MARICOPA COUNTY,"6850 W INDIAN SCHOOL RD , PHOENIX, AZ  85033-3300",AZ,85033,3300,33.494914,-112.206571,40131096022011,,,,3656
-111.681493939943,33.4227561338505,90,WOW EAST VALLEY WIC,ADELANTE HEALTHCARE,6915 E UNIVERSITY DR,,MESA,MARICOPA COUNTY,"6915 E UNIVERSITY DR , MESA, AZ  85207-6403",AZ,85207,6403,33.422751,-111.681483,40134201131001,,,,10
-110.844100689969,32.2207800056109,91,EAST WIC OFFICE,PIMA COUNTY HEALTH DEPT,6920 E BROADWAY BLVD STE G,,TUCSON,PIMA COUNTY,"6920 E BROADWAY BLVD STE G , TUCSON, AZ  85710-2839",AZ,85710,2839,32.220775,-110.84409,40190033023000,,,,3177
-114.065491541481,35.1906012316138,92,KINGMAN WIC,MOHAVE COUNTY DEPT OF HEALTH AND SOCIAL SVCS,700 W BEALE ST,,KINGMAN,MOHAVE COUNTY,"700 W BEALE ST , KINGMAN, AZ  86401-5711",AZ,86401,5711,35.190596,-114.06548,40159536021026,,,,1509
-112.353335878723,33.51849831222,93,LUKE AFB WIC,ADELANTE HEALTHCARE,7282 North 137th Avenue,BLDG #1140,Litchfield Park,MARICOPA COUNTY,"7282 N 137AVE BLDG #1140, LUKE AFB, AZ  85309",AZ,85340,,33.5184932,-112.3533248,40130610471016,,,,136
-111.828672961116,33.3133171113163,94,CHANDLER CARE CENTER,MARICOPA COUNTY DEPT OF PUBLIC HEALTH- WIC ADMINISTRATION,777 E GALVESTON ST,,CHANDLER,MARICOPA COUNTY,"777 E GALVESTON ST , CHANDLER, AZ  85225-8273",AZ,85225,8273,33.313312,-111.828662,40135229041004,,,,1158
-112.232917359372,33.5764989258497,95,COTTON CROSSING WIC,MARICOPA COUNTY DEPT OF PUBLIC HEALTH- WIC ADMINISTRATION,8088 Whitney Drive,,Peoria,MARICOPA COUNTY,"8088 W WHITNEY DR STE 2A , PEORIA, AZ  85345-6564",AZ,85345,6564,33.5764938,-112.2329063,40130719111031,,,,3955
-112.735685187562,33.9758351528681,96,WICKENBURG WIC,ADELANTE HEALTHCARE,811 N TEGNER ST STE 113,,WICKENBURG,MARICOPA COUNTY,"811 N TEGNER ST STE 113 , WICKENBURG, AZ  85390-5410",AZ,85390,5410,33.97583,-112.735674,40130405021014,,,,159
-109.549527373679,31.3494629343108,97,PEDIATRIC CNTR FOR EXCELLENCE,COCHISE COUNTY HEALTH DEPARTMENT,815 E 15TH ST,,DOUGLAS,COCHISE COUNTY,"815 E 15TH ST , DOUGLAS, AZ  85607-1631",AZ,85607,1631,31.349458,-109.549517,40030009022013,,,,419
-109.717234502706,32.8334531489889,98,SAFFORD WIC,GRAHAM COUNTY DEPT OF HEALTH,820 W MAIN ST,,SAFFORD,GRAHAM COUNTY,"820 W MAIN ST , SAFFORD, AZ  85546-2800",AZ,85546,2800,32.833448,-109.717224,40099613002010,,,,858
-112.238467060751,33.5792781260371,99,PEORIA MOBILE WIC,ADELANTE HEALTHCARE,8335 W JEFFERSON ST,,PEORIA,MARICOPA COUNTY,"8335 W JEFFERSON ST , PEORIA, AZ  85345-6516",AZ,85345,6516,33.579273,-112.238456,40130719064013,,,,259
-110.985519718175,32.2204779989484,100,CONGRESS WIC (EL RIO),EL RIO HEALTH CENTER,839 W CONGRESS ST,,TUCSON,PIMA COUNTY,"839 W CONGRESS ST , TUCSON, AZ  85745-2819",AZ,85745,2819,32.220473,-110.985509,40190002002016,,,,1973
-112.12483103808,33.5739291312171,101,PHOENIX  WIC,ADELANTE HEALTHCARE,9610 N METRO PKWY W,,PHOENIX,MARICOPA COUNTY,"9610 N METRO PKWY W , PHOENIX, AZ  85051-1402",AZ,85051,1402,33.573924,-112.12482,40131042054014,,,,2647
-112.337301069035,33.4388341020971,102,AVONDALE,ADELANTE HEALTHCARE,995 E RILEY DR,,AVONDALE,MARICOPA COUNTY,"995 E RILEY DR , AVONDALE, AZ  85323-2010",AZ,85323,2010,33.438829,-112.33729,40130612005015,,,,2018
-112.466544200179,34.7731932725366,103,CHINO VALLEY WIC,YAVAPAI COUNTY WIC,1951 N VOSS DR,,CHINO VALLEY,YAVAPAI COUNTY,"1951 N VOSS DR , CHINO VALLEY, AZ  86323-7628",AZ,86323,7628,34.773188,-112.466533,40250002112019,,,,374
-112.46044418551,34.6071582512168,104,PRESCOTT WIC,YAVAPAI COUNTY WIC,1090 COMMERCE DR,,PRESCOTT,YAVAPAI COUNTY,"1090 COMMERCE DR , PRESCOTT, AZ  86305-3700",AZ,86305,3700,34.607153,-112.460433,40250003012018,,,,313
-112.195126187545,35.2470743503551,105,WILLIAMS WIC,COCONINO COUNTY DEPT OF PUBLIC HEALTH,850 W GRANT AVE,,WILLIAMS,COCONINO COUNTY,"850 W GRANT AVE , WILLIAMS, AZ  86046-2276",AZ,86046,2276,35.247069,-112.195115,40050017003050,,,,80
-111.463222199117,36.9184826094283,106,PAGE WIC,COCONINO COUNTY DEPT OF PUBLIC HEALTH,467 VISTA AVE,,PAGE,COCONINO COUNTY,"467 VISTA AVE , PAGE, AZ  86040-1478",AZ,86040,1478,36.918477,-111.463211,40050021021015,,,,273
-112.52620241315,36.9511005451234,107,FREDONIA WIC,COCONINO COUNTY DEPT OF PUBLIC HEALTH,110 N MAIN ST,,FREDONIA,COCONINO COUNTY,"110 N MAIN ST , FREDONIA, AZ  86022-0180",AZ,86022,180,36.951095,-112.526191,40050020001038,,,,18
-112.128594247286,36.0474324567541,108,GRAND CANYON WIC,COCONINO COUNTY DEPT OF PUBLIC HEALTH,1 CLINIC RD,,GRAND CANYON,COCONINO COUNTY,"1 CLINIC RD , GRAND CANYON, AZ  86023-0290",AZ,86023,290,36.047427,-112.128583,40050023011008,,,,5
